ONEWEB-0291             
1 49081U 21075G   25130.17004459  .00000034  00000+0  53321-4 0  9992
2 49081  87.9041  86.1022 0002180  88.9811 271.1571 13.17648506181520
ONEWEB-0293             
1 49082U 21075H   25129.81567470  .00000046  00000+0  85366-4 0  9996
2 49082  87.9046  86.2031 0002022  87.2819 272.8544 13.17649320180513
ONEWEB-0294             
1 49083U 21075J   25129.80611440  .00000097  00000+0  23346-3 0  9998
2 49083  87.8871  70.9008 0002005  96.9429 263.1928 13.12444520181664
ONEWEB-0295             
1 49084U 21075K   25130.11855887  .00000001  00000+0 -30642-4 0  9994
2 49084  87.9063  86.1311 0002385  88.4946 271.6458 13.17649542181473
ONEWEB-0296             
1 49085U 21075L   25129.86288428 -.00000389  00000+0 -11180-2 0  9990
2 49085  87.8874  70.8972 0002465  93.4304 266.7106 13.12443015181678
ONEWEB-0297             
1 49086U 21075M   25129.81747331  .00000400  00000+0  10756-2 0  9999
2 49086  87.8881  70.9376 0002091  80.2888 279.8476 13.12442540182276
ONEWEB-0298             
1 49087U 21075N   25129.81917109  .00000020  00000+0  18136-4 0  9992
2 49087  87.9048  86.1998 0002232  80.0122 280.1261 13.17651300180500
ONEWEB-0299             
1 49088U 21075P   25129.82071303  .00000000  00000+0 -33849-4 0  9998
2 49088  87.9041  86.1545 0002252  80.6136 279.5250 13.17651882180487
